ONEWEB-0275             
1 48993U 21060AC  25083.02342939 -.00000122  00000+0 -35236-3 0  9990
2 48993  87.9075 318.5154 0001808  79.7815 280.3520 13.16594423181617
ONEWEB-0276             
1 48994U 21060AD  25082.90468375  .00000027  00000+0  36712-4 0  9993
2 48994  87.9076 318.5357 0001779  72.1567 287.9758 13.16589356181628
ONEWEB-0277             
1 48995U 21060AE  25083.37333969 -.00000020  00000+0 -86226-4 0  9996
2 48995  87.9075 318.4795 0002115  74.0314 286.1050 13.16593259181666
ONEWEB-0278             
1 48996U 21060AF  25083.36383834  .00000021  00000+0  20463-4 0  9992
2 48996  87.9075 318.4410 0001480  78.8528 281.2769 13.16593194181812
ONEWEB-0279             
1 48997U 21060AG  25083.37174574 -.00000020  00000+0 -86562-4 0  9996
2 48997  87.9074 318.4357 0002093  77.9497 282.1868 13.16592188181731
ONEWEB-0280             
1 48998U 21060AH  25083.38679735  .00000059  00000+0  11954-3 0  9999
2 48998  87.9074 318.4382 0001679  68.8786 291.2525 13.16595418181661
ONEWEB-0281             
1 48999U 21060AJ  25083.39233016  .00000026  00000+0  34256-4 0  9994
2 48999  87.9073 318.4359 0001833  86.1279 274.0062 13.16591990181753
ONEWEB-0282             
1 49000U 21060AK  25083.34643027 -.00000066  00000+0 -20622-3 0  9997
2 49000  87.9076 318.4616 0001813  73.9276 286.2054 13.16594242181732
